{
  "type": "FeatureCollection",
  "features": [
    {
      "type": "Feature",
      "properties": {
        "norad_id": 30838,
        "name": "FENGYUN 1C DEB",
        "group": "fengyun-1c-debris",
        "lat": 0.840766803038511,
        "lon": 87.23437493509226,
        "alt_km": 716.693936486583,
        "timestamp": "2025-12-18T19:29:52.823342+00:00",
        "meta_object_name": "FENGYUN 1C DEB",
        "meta_object_id": "1999-025AVY",
        "meta_epoch": "2025-12-18T05:24:26.152416",
        "meta_mean_motion": 14.47829759,
        "meta_eccentricity": 0.00345054,
        "meta_inclination": 99.0432,
        "meta_ra_of_asc_node": 266.473,
        "meta_arg_of_pericenter": 140.8553,
        "meta_mean_anomaly": 219.5143,
        "meta_ephemeris_type": 0,
        "meta_classification_type": "U",
        "meta_norad_cat_id": 30838,
        "meta_element_set_no": 999,
        "meta_rev_at_epoch": 97393,
        "meta_bstar": 0.0020077283,
        "meta_mean_motion_dot": 7.442e-05,
        "meta_mean_motion_ddot": 0,
        "tle_line1": "1 30838U 99025AVY 25352.22530269  .00007442  00000+0  20077-2 0  9997",
        "tle_line2": "2 30838  99.0432 266.4730 0034505 140.8553 219.5143 14.47829759973934"
      },
      "geometry": {
        "type": "Point",
        "coordinates": [
          87.23437493509226,
          0.840766803038511
        ]
      }
    },
    {
      "type": "Feature",
      "properties": {
        "norad_id": 30840,
        "name": "FENGYUN 1C DEB",
        "group": "fengyun-1c-debris",
        "lat": -51.73653735516684,
        "lon": 173.67828876764924,
        "alt_km": 768.6234739423298,
        "timestamp": "2025-12-18T19:29:52.823353+00:00",
        "meta_object_name": "FENGYUN 1C DEB",
        "meta_object_id": "1999-025AWA",
        "meta_epoch": "2025-12-18T06:55:18.363072",
        "meta_mean_motion": 14.61161329,
        "meta_eccentricity": 0.02171317,
        "meta_inclination": 98.0225,
        "meta_ra_of_asc_node": 3.4706,
        "meta_arg_of_pericenter": 353.2065,
        "meta_mean_anomaly": 6.6204,
        "meta_ephemeris_type": 0,
        "meta_classification_type": "U",
        "meta_norad_cat_id": 30840,
        "meta_element_set_no": 999,
        "meta_rev_at_epoch": 73212,
        "meta_bstar": 0.00066034371,
        "meta_mean_motion_dot": 4.491e-05,
        "meta_mean_motion_ddot": 0,
        "tle_line1": "1 30840U 99025AWA 25352.28840698  .00004491  00000+0  66034-3 0  9991",
        "tle_line2": "2 30840  98.0225   3.4706 0217131 353.2065   6.6204 14.61161329732129"
      },
      "geometry": {
        "type": "Point",
        "coordinates": [
          173.67828876764924,
          -51.73653735516684
        ]
      }
    },
    {
      "type": "Feature",
      "properties": {
        "norad_id": 30843,
        "name": "FENGYUN 1C DEB",
        "group": "fengyun-1c-debris",
        "lat": -53.59909409758889,
        "lon": -127.42555186169824,
        "alt_km": 795.9374175318844,
        "timestamp": "2025-12-18T19:29:52.823362+00:00",
        "meta_object_name": "FENGYUN 1C DEB",
        "meta_object_id": "1999-025AWD",
        "meta_epoch": "2025-12-17T22:35:44.052576",
        "meta_mean_motion": 14.52484144,
        "meta_eccentricity": 0.01489473,
        "meta_inclination": 98.8421,
        "meta_ra_of_asc_node": 63.8455,
        "meta_arg_of_pericenter": 103.9744,
        "meta_mean_anomaly": 257.8064,
        "meta_ephemeris_type": 0,
        "meta_classification_type": "U",
        "meta_norad_cat_id": 30843,
        "meta_element_set_no": 999,
        "meta_rev_at_epoch": 99400,
        "meta_bstar": 0.00012801611,
        "meta_mean_motion_dot": 5.47e-06,
        "meta_mean_motion_ddot": 0,
        "tle_line1": "1 30843U 99025AWD 25351.94148209  .00000547  00000+0  12802-3 0  9997",
        "tle_line2": "2 30843  98.8421  63.8455 0148947 103.9744 257.8064 14.52484144994005"
      },
      "geometry": {
        "type": "Point",
        "coordinates": [
          -127.42555186169824,
          -53.59909409758889
        ]
      }
    },
    {
      "type": "Feature",
      "properties": {
        "norad_id": 30845,
        "name": "FENGYUN 1C DEB",
        "group": "fengyun-1c-debris",
        "lat": -48.595498163808465,
        "lon": 2.298000526387146,
        "alt_km": 902.6499301125605,
        "timestamp": "2025-12-18T19:29:52.823372+00:00",
        "meta_object_name": "FENGYUN 1C DEB",
        "meta_object_id": "1999-025AWF",
        "meta_epoch": "2025-12-18T06:06:02.257056",
        "meta_mean_motion": 13.76862309,
        "meta_eccentricity": 0.01920684,
        "meta_inclination": 98.3793,
        "meta_ra_of_asc_node": 352.1834,
        "meta_arg_of_pericenter": 255.4683,
        "meta_mean_anomaly": 168.0422,
        "meta_ephemeris_type": 0,
        "meta_classification_type": "U",
        "meta_norad_cat_id": 30845,
        "meta_element_set_no": 999,
        "meta_rev_at_epoch": 94319,
        "meta_bstar": 0.0003057804,
        "meta_mean_motion_dot": 3.07e-06,
        "meta_mean_motion_ddot": 0,
        "tle_line1": "1 30845U 99025AWF 25352.25419279  .00000307  00000+0  30578-3 0  9996",
        "tle_line2": "2 30845  98.3793 352.1834 0192068 255.4683 168.0422 13.76862309943190"
      },
      "geometry": {
        "type": "Point",
        "coordinates": [
          2.298000526387146,
          -48.595498163808465
        ]
      }
    },
    {
      "type": "Feature",
      "properties": {
        "norad_id": 30846,
        "name": "FENGYUN 1C DEB",
        "group": "fengyun-1c-debris",
        "lat": 39.98896194665185,
        "lon": -5.509795018653094,
        "alt_km": 788.6165215534465,
        "timestamp": "2025-12-18T19:29:52.823382+00:00",
        "meta_object_name": "FENGYUN 1C DEB",
        "meta_object_id": "1999-025AWG",
        "meta_epoch": "2025-12-18T06:21:15.576768",
        "meta_mean_motion": 14.41570467,
        "meta_eccentricity": 0.00539347,
        "meta_inclination": 99.3206,
        "meta_ra_of_asc_node": 165.9753,
        "meta_arg_of_pericenter": 320.2111,
        "meta_mean_anomaly": 218.547,
        "meta_ephemeris_type": 0,
        "meta_classification_type": "U",
        "meta_norad_cat_id": 30846,
        "meta_element_set_no": 999,
        "meta_rev_at_epoch": 98009,
        "meta_bstar": 0.00063086416,
        "meta_mean_motion_dot": 2.035e-05,
        "meta_mean_motion_ddot": 0,
        "tle_line1": "1 30846U 99025AWG 25352.26476362  .00002035  00000+0  63086-3 0  9994",
        "tle_line2": "2 30846  99.3206 165.9753 0053934 320.2111 218.5470 14.41570467980094"
      },
      "geometry": {
        "type": "Point",
        "coordinates": [
          -5.509795018653094,
          39.98896194665185
        ]
      }
    },
    {
      "type": "Feature",
      "properties": {
        "norad_id": 30847,
        "name": "FENGYUN 1C DEB",
        "group": "fengyun-1c-debris",
        "lat": 35.841971830579524,
        "lon": 146.48418517401308,
        "alt_km": 828.9736173664469,
        "timestamp": "2025-12-18T19:29:52.823393+00:00",
        "meta_object_name": "FENGYUN 1C DEB",
        "meta_object_id": "1999-025AWH",
        "meta_epoch": "2025-12-17T22:01:32.569248",
        "meta_mean_motion": 14.17059037,
        "meta_eccentricity": 0.00655122,
        "meta_inclination": 98.731,
        "meta_ra_of_asc_node": 151.979,
        "meta_arg_of_pericenter": 313.2265,
        "meta_mean_anomaly": 200.8715,
        "meta_ephemeris_type": 0,
        "meta_classification_type": "U",
        "meta_norad_cat_id": 30847,
        "meta_element_set_no": 999,
        "meta_rev_at_epoch": 96128,
        "meta_bstar": 0.001563633,
        "meta_mean_motion_dot": 3.169e-05,
        "meta_mean_motion_ddot": 0,
        "tle_line1": "1 30847U 99025AWH 25351.91773807  .00003169  00000+0  15636-2 0  9996",
        "tle_line2": "2 30847  98.7310 151.9790 0065512 313.2265 200.8715 14.17059037961281"
      },
      "geometry": {
        "type": "Point",
        "coordinates": [
          146.48418517401308,
          35.841971830579524
        ]
      }
    },
    {
      "type": "Feature",
      "properties": {
        "norad_id": 30848,
        "name": "FENGYUN 1C DEB",
        "group": "fengyun-1c-debris",
        "lat": 22.22050122619043,
        "lon": 11.677731462840422,
        "alt_km": 805.8607824441033,
        "timestamp": "2025-12-18T19:29:52.823403+00:00",
        "meta_object_name": "FENGYUN 1C DEB",
        "meta_object_id": "1999-025AWJ",
        "meta_epoch": "2025-12-15T12:05:14.138304",
        "meta_mean_motion": 14.34503619,
        "meta_eccentricity": 0.00437809,
        "meta_inclination": 99.0595,
        "meta_ra_of_asc_node": 184.4736,
        "meta_arg_of_pericenter": 327.7102,
        "meta_mean_anomaly": 32.1403,
        "meta_ephemeris_type": 0,
        "meta_classification_type": "U",
        "meta_norad_cat_id": 30848,
        "meta_element_set_no": 999,
        "meta_rev_at_epoch": 97346,
        "meta_bstar": 0.0009032154,
        "meta_mean_motion_dot": 2.527e-05,
        "meta_mean_motion_ddot": 0,
        "tle_line1": "1 30848U 99025AWJ 25349.50363586  .00002527  00000+0  90322-3 0  9991",
        "tle_line2": "2 30848  99.0595 184.4736 0043780 327.7102  32.1403 14.34503619973467"
      },
      "geometry": {
        "type": "Point",
        "coordinates": [
          11.677731462840422,
          22.22050122619043
        ]
      }
    }
  ]
}